FENGYUN 1C DEB          
1 30352U 99025ABP 24366.33590582  .00000780  00000+0  48903-3 0  9995
2 30352  98.7954  31.1859 0028241 211.8186 159.9886 14.07241615920387
FENGYUN 1C DEB          
1 30355U 99025ABS 24366.80860645  .00004061  00000+0  19963-2 0  9999
2 30355  98.5928  16.1926 0054212 225.2816 308.8152 14.17410647924472
FENGYUN 1C DEB          
1 30356U 99025ABT 24366.71009089  .00003716  00000+0  20321-2 0  9993
2 30356  98.6681   6.8795 0053115 194.0232 226.3406 14.11818349921362
FENGYUN 1C DEB          
1 30357U 99025ABU 24366.88166103  .00000509  00000+0  33946-3 0  9998
2 30357  98.8448  37.4116 0049068 217.1919 317.1189 14.05037490919495
FENGYUN 1C DEB          
1 30358U 99025ABV 24366.53140491  .00009104  00000+0  43427-2 0  9997
2 30358  98.5672 201.1230 0085491 119.1834 268.1788 14.17516912920076
FENGYUN 1C DEB          
1 30359U 99025ABW 24366.75264886  .00010172  00000+0  73719-2 0  9991
2 30359 101.6250  99.0786 0155501 126.3279 235.2341 13.91090903902537
FENGYUN 1C DEB          
1 30360U 99025ABX 24366.67979177  .00009169  00000+0  40521-2 0  9999
2 30360  98.7886  70.3875 0031397  69.9383  83.2940 14.23171355924969
FENGYUN 1C DEB          
1 30361U 99025ABY 24366.06448251  .00005566  00000+0  24268-2 0  9994
2 30361  98.5991  43.8979 0066486 319.0889  40.5311 14.23141222926816
FENGYUN 1C DEB          
1 30362U 99025ABZ 24366.72929015  .00010471  00000+0  59195-2 0  9998
2 30362  99.0497 281.5472 0097516 234.9823 124.2165 14.07948402912925
FENGYUN 1C DEB          
1 30363U 99025ACA 24365.63701715  .00008839  00000+0  45211-2 0  9992
2 30363  99.0547  65.8829 0082322 301.8777  57.4403 14.14019900919134
FENGYUN 1C DEB          
1 30364U 99025ACB 24363.31582796  .00018269  00000+0  57738-2 0  9997
2 30364  98.1262 304.4386 0355986 255.0117 262.7262 14.09657468907048
FENGYUN 1C DEB          
1 30365U 99025ACC 24366.96375654  .00002267  00000+0  96791-3 0  9999
2 30365  98.6045   4.9648 0169100  29.6813   0.0294 14.18581505927098
FENGYUN 1C DEB          
1 30366U 99025ACD 24365.67843064  .00004294  00000+0  15809-2 0  9994
2 30366  98.9326 266.8633 0064391 153.1616 237.5395 14.31977577933535
FENGYUN 1C DEB          
1 30368U 99025ACF 24366.77174642  .00001060  00000+0  10119-2 0  9994
2 30368  99.1651 119.6116 0189077 140.0419  16.8562 13.75029713899067
FENGYUN 1C DEB          
1 30369U 99025ACG 24366.77087948  .00001116  00000+0  60726-3 0  9999
2 30369  98.7117   7.7635 0101026  99.3097  73.7252 14.11618746923640
FENGYUN 1C DEB          
1 30370U 99025ACH 24366.10523417  .00007585  00000+0  36038-2 0  9998
2 30370  99.0852  48.5109 0103387 222.2093 164.3626 14.16948562921812
FENGYUN 1C DEB          
1 30371U 99025ACJ 24366.61517480  .00007892  00000+0  32065-2 0  9995
2 30371  98.6077  48.6088 0007589 267.4269 260.5723 14.27809371929739
FENGYUN 1C DEB          
1 30374U 99025ACM 24366.78698142  .00024588  00000+0  57193-2 0  9991
2 30374  99.2931 184.1882 0044758 130.9355 241.6502 14.54237925938819
FENGYUN 1C DEB          
1 30377U 99025ACQ 24366.54168667  .00001653  00000+0  11098-2 0  9994
2 30377  98.9232  29.5991 0119696 144.4389  10.8149 13.98659601913661
FENGYUN 1C DEB          
1 30379U 99025ACS 24366.85355413  .00001316  00000+0  80071-3 0  9991
2 30379  98.7797  25.5489 0036825 172.7208   0.8777 14.07535453919505
FENGYUN 1C DEB          
1 30380U 99025ACT 24366.54236473  .00003686  00000+0  79363-3 0  9997
2 30380  98.9535  27.0750 0181394 178.1649 182.0248 14.49380029945629
